STARLINK-35750          
1 66209U 25244D   26068.75749545  .00028065  00000+0  95626-3 0  9999
2 66209  53.1591 229.3372 0001083  80.4062 279.7061 15.30194327 21672
GLOBAL-34               
1 68098U 26043A   26068.47466435  .00014018  00000+0  45822-3 0  9994
2 68098  42.0215  76.7399 0006884 289.2632  70.7460 15.31488019   538
